GLOBALSTAR M067         
1 32263U 07048A   26011.85345597 -.00000132  00000+0 -25930-3 0  9990
2 32263  51.9718 145.3491 0002001  87.7701  81.5179 12.40683838835380
GLOBALSTAR M070         
1 32264U 07048B   26011.95700874 -.00000075  00000+0  16121-3 0  9992
2 32264  51.9723 212.4998 0000875  83.2901  83.0511 12.62329225840031
GLOBALSTAR M066         
1 32265U 07048C   26011.79557839 -.00000107  00000+0 -10546-3 0  9998
2 32265  51.9579 146.8674 0005792  81.6817  65.4368 12.30384673840973
GLOBALSTAR M068         
1 32266U 07048D   26011.81139512 -.00000106  00000+0 -13227-4 0  9995
2 32266  51.9901  26.2918 0000908 223.1701 309.6447 12.62837706843917
GLOBALSTAR M079         
1 37188U 10054A   26012.00405683 -.00000089  00000+0  82323-4 0  9993
2 37188  52.0013 224.1160 0001171  68.1111  79.1122 12.62269915702828
GLOBALSTAR M074         
1 37189U 10054B   26011.77832992 -.00000089  00000+0  79954-4 0  9990
2 37189  51.9992 224.0938 0001174  84.1874 356.2098 12.62265327703401
GLOBALSTAR M076         
1 37190U 10054C   26011.86945190 -.00000077  00000+0  14807-3 0  9999
2 37190  52.0003 224.0068 0001303  79.1924 294.7470 12.62269289703137
GLOBALSTAR M077         
1 37191U 10054D   26011.94737259 -.00000055  00000+0  41317-3 0  9996
2 37191  51.9941 216.1341 0001718  75.0945  73.1435 11.68177457702882
